CTC2_L_00097001-01
1 41127U 26212TZ  26037.47791667  .00000000  00000+0  00000-0 0  9992
2 41127  50.0000   0.0000 0000000   0.0000   0.0000 14.60983372    16
CTC2_L_00097001-02
1 41128U 22538EV  26037.47791667  .00000000  00000+0  00000-0 0  9990
2 41128  50.0000   0.0000 0000000   0.0000  90.0000 14.60983372    16
CTC2_L_00097001-03
1 41129U 22059K   26037.47791667  .00000000  00000+0  00000-0 0  9999
2 41129  50.0000   0.0000 0000000   0.0000 180.0000 14.60983372    17
CTC2_L_00097001-04
1 41130U 24371EA  26037.47791667  .00000000  00000+0  00000-0 0  9990
2 41130  50.0000   0.0000 0000000   0.0000 270.0000 14.60983372    19
CTC2_L_00097002-01
1 41131U 25721UH  26037.47791667  .00000000  00000+0  00000-0 0  9991
2 41131  50.0000  12.0000 0000000   0.0000  12.0000 14.60983372    17
CTC2_L_00097002-02
1 41132U 26275FS  26037.47791667  .00000000  00000+0  00000-0 0  9997
2 41132  50.0000  12.0000 0000000   0.0000 102.0000 14.60983372    18
CTC2_L_00097002-03
1 41133U 22024BZ  26037.47791667  .00000000  00000+0  00000-0 0  9996
2 41133  50.0000  12.0000 0000000   0.0000 192.0000 14.60983372    18
CTC2_L_00097002-04
1 41134U 25594YN  26037.47791667  .00000000  00000+0  00000-0 0  9992
2 41134  50.0000  12.0000 0000000   0.0000 282.0000 14.60983372    19
CTC2_L_00097003-01
1 41135U 23759QV  26037.47791667  .00000000  00000+0  00000-0 0  9994
2 41135  50.0000  24.0000 0000000   0.0000  24.0000 14.60983372    17
CTC2_L_00097003-02
1 41136U 23047OV  26037.47791667  .00000000  00000+0  00000-0 0  9995
2 41136  50.0000  24.0000 0000000   0.0000 114.0000 14.60983372    18
CTC2_L_00097003-03
1 41137U 25835EL  26037.47791667  .00000000  00000+0  00000-0 0  9993
2 41137  50.0000  24.0000 0000000   0.0000 204.0000 14.60983372    19
CTC2_L_00097003-04
1 41138U 25931SJ  26037.47791667  .00000000  00000+0  00000-0 0  9991
2 41138  50.0000  24.0000 0000000   0.0000 294.0000 14.60983372    19
CTC2_L_00097004-01
1 41139U 24301PF  26037.47791667  .00000000  00000+0  00000-0 0  9992
2 41139  50.0000  36.0000 0000000   0.0000  36.0000 14.60983372    17
CTC2_L_00097004-02
1 41140U 26377TG  26037.47791667  .00000000  00000+0  00000-0 0  9999
2 41140  50.0000  36.0000 0000000   0.0000 126.0000 14.60983372    19
CTC2_L_00097004-03
1 41141U 24049JA  26037.47791667  .00000000  00000+0  00000-0 0  9994
2 41141  50.0000  36.0000 0000000   0.0000 216.0000 14.60983372    10
CTC2_L_00097004-04
1 41142U 24261GA  26037.47791667  .00000000  00000+0  00000-0 0  9991
2 41142  50.0000  36.0000 0000000   0.0000 306.0000 14.60983372    11
CTC2_L_00097005-01
1 41143U 26015PV  26037.47791667  .00000000  00000+0  00000-0 0  9991
2 41143  50.0000  48.0000 0000000   0.0000  48.0000 14.60983372    18
CTC2_L_00097005-02
1 41144U 22438DP  26037.47791667  .00000000  00000+0  00000-0 0  9997
2 41144  50.0000  48.0000 0000000   0.0000 138.0000 14.60983372    19
CTC2_L_00097005-03
1 41145U 26387BG  26037.47791667  .00000000  00000+0  00000-0 0  9995
2 41145  50.0000  48.0000 0000000   0.0000 228.0000 14.60983372    10
CTC2_L_00097005-04
1 41146U 24884LN  26037.47791667  .00000000  00000+0  00000-0 0  9996
2 41146  50.0000  48.0000 0000000   0.0000 318.0000 14.60983372    11
CTC2_L_00097006-01
1 41147U 24186HG  26037.47791667  .00000000  00000+0  00000-0 0  9992
2 41147  50.0000  60.0000 0000000   0.0000  60.0000 14.60983372    10
CTC2_L_00097006-02
1 41148U 25853HT  26037.47791667  .00000000  00000+0  00000-0 0  9995
2 41148  50.0000  60.0000 0000000   0.0000 150.0000 14.60983372    11
CTC2_L_00097006-03
1 41149U 24978KO  26037.47791667  .00000000  00000+0  00000-0 0  9993
2 41149  50.0000  60.0000 0000000   0.0000 240.0000 14.60983372    12
CTC2_L_00097006-04
1 41150U 24196ZZ  26037.47791667  .00000000  00000+0  00000-0 0  9997
2 41150  50.0000  60.0000 0000000   0.0000 330.0000 14.60983372    14
CTC2_L_00097007-01
1 41151U 25606ZA  26037.47791667  .00000000  00000+0  00000-0 0  9995
2 41151  50.0000  72.0000 0000000   0.0000  72.0000 14.60983372    11
CTC2_L_00097007-02
1 41152U 22276OZ  26037.47791667  .00000000  00000+0  00000-0 0  9996
2 41152  50.0000  72.0000 0000000   0.0000 162.0000 14.60983372    12
CTC2_L_00097007-03
1 41153U 24678AP  26037.47791667  .00000000  00000+0  00000-0 0  9995
2 41153  50.0000  72.0000 0000000   0.0000 252.0000 14.60983372    13
CTC2_L_00097007-04
1 41154U 25756IA  26037.47791667  .00000000  00000+0  00000-0 0  9994
2 41154  50.0000  72.0000 0000000   0.0000 342.0000 14.60983372    14
CTC2_L_00097008-01
1 41155U 22103DX  26037.47791667  .00000000  00000+0  00000-0 0  9998
2 41155  50.0000  84.0000 0000000   0.0000  84.0000 14.60983372    11
CTC2_L_00097008-02
1 41156U 24713CR  26037.47791667  .00000000  00000+0  00000-0 0  9998
2 41156  50.0000  84.0000 0000000   0.0000 174.0000 14.60983372    12
CTC2_L_00097008-03
1 41157U 23519QJ  26037.47791667  .00000000  00000+0  00000-0 0  9992
2 41157  50.0000  84.0000 0000000   0.0000 264.0000 14.60983372    13
CTC2_L_00097008-04
1 41158U 26716MA  26037.47791667  .00000000  00000+0  00000-0 0  9995
2 41158  50.0000  84.0000 0000000   0.0000 354.0000 14.60983372    14
CTC2_L_00097009-01
1 41159U 26981AZ  26037.47791667  .00000000  00000+0  00000-0 0  9990
2 41159  50.0000  96.0000 0000000   0.0000  96.0000 14.60983372    11
CTC2_L_00097009-02
1 41160U 24505JQ  26037.47791667  .00000000  00000+0  00000-0 0  9992
2 41160  50.0000  96.0000 0000000   0.0000 186.0000 14.60983372    13
CTC2_L_00097009-03
1 41161U 22599RO  26037.47791667  .00000000  00000+0  00000-0 0  9994
2 41161  50.0000  96.0000 0000000   0.0000 276.0000 14.60983372    14
CTC2_L_00097009-04
1 41162U 26891HM  26037.47791667  .00000000  00000+0  00000-0 0  9994
2 41162  50.0000  96.0000 0000000   0.0000   6.0000 14.60983372    16
CTC2_L_00097010-01
1 41163U 23055UQ  26037.47791667  .00000000  00000+0  00000-0 0  9994
2 41163  50.0000 108.0000 0000000   0.0000 108.0000 14.60983372    14
CTC2_L_00097010-02
1 41164U 24370VM  26037.47791667  .00000000  00000+0  00000-0 0  9996
2 41164  50.0000 108.0000 0000000   0.0000 198.0000 14.60983372    14
CTC2_L_00097010-03
1 41165U 25664WG  26037.47791667  .00000000  00000+0  00000-0 0  9994
2 41165  50.0000 108.0000 0000000   0.0000 288.0000 14.60983372    15
CTC2_L_00097010-04
1 41166U 26571AB  26037.47791667  .00000000  00000+0  00000-0 0  9993
2 41166  50.0000 108.0000 0000000   0.0000  18.0000 14.60983372    17
CTC2_L_00097011-01
1 41167U 25778RW  26037.47791667  .00000000  00000+0  00000-0 0  9992
2 41167  50.0000 120.0000 0000000   0.0000 120.0000 14.60983372    16
CTC2_L_00097011-02
1 41168U 22845WX  26037.47791667  .00000000  00000+0  00000-0 0  9995
2 41168  50.0000 120.0000 0000000   0.0000 210.0000 14.60983372    17
CTC2_L_00097011-03
1 41169U 23462ZR  26037.47791667  .00000000  00000+0  00000-0 0  9992
2 41169  50.0000 120.0000 0000000   0.0000 300.0000 14.60983372    18
CTC2_L_00097011-04
1 41170U 26660PJ  26037.47791667  .00000000  00000+0  00000-0 0  9997
2 41170  50.0000 120.0000 0000000   0.0000  30.0000 14.60983372    10
CTC2_L_00097012-01
1 41171U 23143BM  26037.47791667  .00000000  00000+0  00000-0 0  9991
2 41171  50.0000 132.0000 0000000   0.0000 132.0000 14.60983372    17
CTC2_L_00097012-02
1 41172U 25199GV  26037.47791667  .00000000  00000+0  00000-0 0  9995
2 41172  50.0000 132.0000 0000000   0.0000 222.0000 14.60983372    18
CTC2_L_00097012-03
1 41173U 22574GD  26037.47791667  .00000000  00000+0  00000-0 0  9990
2 41173  50.0000 132.0000 0000000   0.0000 312.0000 14.60983372    19
CTC2_L_00097012-04
1 41174U 22349BU  26037.47791667  .00000000  00000+0  00000-0 0  9991
2 41174  50.0000 132.0000 0000000   0.0000  42.0000 14.60983372    10
CTC2_L_00097013-01
1 41175U 22007V   26037.47791667  .00000000  00000+0  00000-0 0  9993
2 41175  50.0000 144.0000 0000000   0.0000 144.0000 14.60983372    17
CTC2_L_00097013-02
1 41176U 26435NW  26037.47791667  .00000000  00000+0  00000-0 0  9993
2 41176  50.0000 144.0000 0000000   0.0000 234.0000 14.60983372    18
CTC2_L_00097013-03
1 41177U 25812RT  26037.47791667  .00000000  00000+0  00000-0 0  9992
2 41177  50.0000 144.0000 0000000   0.0000 324.0000 14.60983372    19
CTC2_L_00097013-04
1 41178U 24553WN  26037.47791667  .00000000  00000+0  00000-0 0  9994
2 41178  50.0000 144.0000 0000000   0.0000  54.0000 14.60983372    10
CTC2_L_00097014-01
1 41179U 24757VY  26037.47791667  .00000000  00000+0  00000-0 0  9991
2 41179  50.0000 156.0000 0000000   0.0000 156.0000 14.60983372    17
CTC2_L_00097014-02
1 41180U 23634IG  26037.47791667  .00000000  00000+0  00000-0 0  9996
2 41180  50.0000 156.0000 0000000   0.0000 246.0000 14.60983372    19
CTC2_L_00097014-03
1 41181U 26557MO  26037.47791667  .00000000  00000+0  00000-0 0  9994
2 41181  50.0000 156.0000 0000000   0.0000 336.0000 14.60983372    10
CTC2_L_00097014-04
1 41182U 26850VV  26037.47791667  .00000000  00000+0  00000-0 0  9991
2 41182  50.0000 156.0000 0000000   0.0000  66.0000 14.60983372    11
CTC2_L_00097015-01
1 41183U 23555EF  26037.47791667  .00000000  00000+0  00000-0 0  9991
2 41183  50.0000 168.0000 0000000   0.0000 168.0000 14.60983372    18
CTC2_L_00097015-02
1 41184U 24196LH  26037.47791667  .00000000  00000+0  00000-0 0  9994
2 41184  50.0000 168.0000 0000000   0.0000 258.0000 14.60983372    19
CTC2_L_00097015-03
1 41185U 24794IA  26037.47791667  .00000000  00000+0  00000-0 0  9999
2 41185  50.0000 168.0000 0000000   0.0000 348.0000 14.60983372    10
CTC2_L_00097015-04
1 41186U 26405VF  26037.47791667  .00000000  00000+0  00000-0 0  9991
2 41186  50.0000 168.0000 0000000   0.0000  78.0000 14.60983372    11
CTC2_L_00097016-01
1 41187U 23417VK  26037.47791667  .00000000  00000+0  00000-0 0  9992
2 41187  50.0000 180.0000 0000000   0.0000 180.0000 14.60983372    10
CTC2_L_00097016-02
1 41188U 26693BH  26037.47791667  .00000000  00000+0  00000-0 0  9992
2 41188  50.0000 180.0000 0000000   0.0000 270.0000 14.60983372    11
